[
    {
        "Altitude(m)": 610405.3243373646,
        "Argument of Periapsis(deg)": 0.0,
        "Eccentricity": 0.0,
        "Inclination(deg)": 60.0,
        "Latitude(deg)": 52.11127517713226,
        "Longitude(deg)": 167.4775545081813,
        "Mean Anomaly(deg)": 114.5455,
        "RAAN(deg)": 135.0,
        "Satellite Name": "Test1 601",
        "Satellite Number": 601,
        "Semi-Major Axis(m)": 6980739.136638005,
        "Time(s)": 0
    },
    {
        "Altitude(m)": 610321.8967988224,
        "Argument of Periapsis(deg)": 0.00010418945913296404,
        "Eccentricity": 0.0,
        "Inclination(deg)": 60.0,
        "Latitude(deg)": 51.74598872035523,
        "Longitude(deg)": 168.24644660192337,
        "Mean Anomaly(deg)": 115.16560614546188,
        "RAAN(deg)": 134.99957995086024,
        "Satellite Name": "Test1 601",
        "Satellite Number": 601,
        "Semi-Major Axis(m)": 6980739.136638005,
        "Time(s)": 10
    }
]